#dP2024 10 19 12  0  0.00000000      96 __u+U IGS20 EXT  IAC
## 2336 561600.00000000   900.00000000 60602 0.5000000000000
+   53   G02G03G04G05G06G07G08G09G10G11G12G13G14G15G16G17G18
+        G19G20G21G22G23G24G25G26G27G28G29G30G31G32R01R02R03
+        R04R05R07R08R09R11R12R14R15R16R17R18R19R20R21R22R24
+        R25R26  0  0  0  0  0  0  0  0  0  0  0  0  0  0  0
+          0  0  0  0  0  0  0  0  0  0  0  0  0  0  0  0  0
++         6  7  6  8  7  8  6  7  7  8  7  6  7  7  8  8  7
++         6  7  6  7  7  7  7  8  7  8  6  6  8  6  7  8  7
++         8  8  8  8  7  8  8  7  9 10  8  7  9  9  8  7  8
++         7  9  0  0  0  0  0  0  0  0  0  0  0  0  0  0  0
++         0  0  0  0  0  0  0  0  0  0  0  0  0  0  0  0  0
%c M  cc GPS ccc cccc cccc cccc cccc ccccc ccccc ccccc ccccc
%c cc cc ccc ccc cccc cccc cccc cccc ccccc ccccc ccccc ccccc
%f  0.0000000  0.000000000  0.00000000000  0.000000000000000
%f  0.0000000  0.000000000  0.00000000000  0.000000000000000
%i    0    0    0    0      0      0      0      0         0
%i    0    0    0    0      0      0      0      0         0
/* IAC                                ULTRA-RAPID PREDICTION
/* S/V CLOCKS ARE ALIGNED TO GNSS TIME                      
/* G:C1WC2W R:C1PC2P E:C1XC5X C:C2IC6I J:C1CC2S             
/* PCV:IGS20_2317 OL/AL:FES2004  NONE     YN ORB:CoN CLK:CoN
*  2024 10 19 21  0  0.00000000
PG02 -15386.392289 -13178.730387 -16883.129219   -333.453638
PG03 -12716.027966 -22267.758983   6968.048139    575.346837
PG04  -8669.812075 -12720.187469  21643.908163    464.654400
PG05   4174.511357  24804.974521   8244.926876   -190.319970
PG06 -20568.882055   6394.056988  15683.908373    -50.713214
PG07 -25661.667143  -7183.287178   3445.306664    -26.267266
PG08    857.635186 -20465.566073 -16781.405334    389.316436
PG09 -16370.958913  -2762.171101  20649.966822    405.983270
PG10  13029.459754  -6662.021160 -21930.665526   -164.460350
PG11  -6585.467413  13866.072649  21703.527864   -745.143717
PG12   9331.686231  24633.319375   3293.087657   -546.286062
PG13 -10557.246887  20847.865002 -12626.127242    682.234033
PG14 -15447.156463   2586.649794 -21419.428558    521.228868
PG15   2243.726938  20547.003974 -17117.878306    217.700144
PG16   2157.079765 -23432.049979  11522.139376   -150.528720
PG17 -21283.338047  11773.813262 -10462.453180    589.719586
PG18  25953.911244   6091.214641   1226.040430   -658.498573
PG19 -20057.950270  16907.703962  -2359.267118    552.540609
PG20  -3059.501769  19704.537803  17689.960904    369.518215
PG21  -9814.249243 -14699.285494 -19735.129201     99.405590
PG22 -11718.425365  11706.531080 -20426.521431    -72.472284
PG23  16761.572421   7979.311181 -19050.685177    345.216430
PG24  13039.972234  14750.538483 -18460.606942   -484.192296
PG25  16362.075172  15863.460521  13510.873041    499.464884
PG26   8995.492943 -15271.269551  19505.596345     51.591693
PG27  10734.955724 -22507.322741  -8790.062971    -34.628898
PG28  21937.799472  -6287.801882  13578.792591   -451.445153
PG29  14948.125504   5599.226735  21209.039119   -570.079407
PG30 -25670.660043    719.559658  -7158.341031   -299.103776
PG31  12342.662003 -11992.320020  20087.913630   -223.132649
PG32  20207.052094 -14193.941178  -9287.393764   -584.743068
PR01   9131.847177   6874.941734 -22808.564364    101.594900
PR02  13294.878681 -10762.047239 -18854.317750    -25.265402
PR03  10195.402024 -22981.854501  -4055.864226    109.741845
PR04   2016.319437 -22152.039481  12488.126825    260.039661
PR05  -7445.148921  -9640.451781  22411.411299    139.407875
PR07 -10103.606435  23172.563096   3666.194788     93.269145
PR08  -1686.963625  22136.043810 -12548.086548     -6.401576
PR09 -15402.530191  -1992.537470 -20242.027300    215.658593
PR11   9457.059626  20002.908282 -12667.279286      8.900503
PR12  18365.577860  16408.819493   6692.256198     46.228969
PR14   3256.494750 -12493.974887  22014.227724     27.107287
PR15 -10491.482108 -20416.816579  11151.154683     74.765650
PR16 -18357.657688 -16508.176176  -6478.411511     30.072958
PR17  15002.288102 -10840.959100 -17562.545520    132.250967
PR18  -2133.634982 -10314.754427 -23210.033813    167.688226
PR19 -16664.905386  -6078.881915 -18317.212070   -295.481575
PR20 -25237.991394   3698.712232    945.777633   -120.694963
PR21 -15788.298735  10503.745114  17047.301669   -144.176751
PR22   3251.295337  10573.635894  23014.915563     15.975511
PR24  24963.146796  -5121.842289  -1387.710150    -76.674810
PR25 -14933.062204  10588.952908  17760.233683    -90.092835
PR26  -2461.086498  22786.862824 -11165.273849   -535.849487
*  2024 10 19 21 15  0.00000000
PG02 -13284.074790 -13177.549540 -18512.862240   -333.446173
PG03 -12794.809683 -22937.380824   4161.303898    575.357341
PG04  -7044.157778 -14542.692828  21065.356337    464.660492
PG05   3528.208238  23872.638612  10840.378309   -190.321075
PG06 -22176.274592   6004.026026  13493.823302    -50.738288
PG07 -25146.432410  -7347.061711   6184.502450    -26.264399
PG08   2102.577924 -21794.955047 -14834.834913    389.326686
PG09 -14963.320683  -4733.804328  21339.682676    405.998226
PG10  13975.139879  -4290.496088 -21969.983745   -164.472529
PG11  -8974.678700  13347.409381  21159.037791   -745.146196
PG12   9167.576403  24942.036656    448.203520   -546.288444
PG13 -11624.509933  21578.892834 -10154.925658    682.235690
PG14 -16258.277080    286.412880 -20990.270359    521.236428
PG15   1186.396344  21992.827833 -15255.670857    217.704155
PG16   2823.806274 -22047.572962  13851.091581   -150.519771
PG17 -20506.437839  10607.210233 -12870.057641    589.707720
PG18  25627.381230   6236.371605   4074.465967   -658.499645
PG19 -19955.297908  16417.999325  -5205.990685    552.544786
PG20  -4276.316269  17996.491806  19187.005642    369.517903
PG21  -7444.423361 -14618.274302 -20690.663089     99.404858
PG22 -12468.207560   9365.824484 -21136.046523    -72.475201
PG23  17486.875309   9932.580906 -17433.601433    345.223756
PG24  10938.421973  14774.729755 -19755.671746   -484.191103
PG25  16715.276345  17294.929356  11206.203055    499.464747
PG26  10152.251143 -13236.104694  20430.669107     51.583151
PG27  11455.169117 -22993.383676  -6085.691484    -34.629011
PG28  23325.493438  -5916.197952  11233.141301   -451.456583
PG29  13304.252992   7431.217825  21722.708029   -570.077032
PG30 -26300.182697    327.654167  -4474.458871   -299.096968
PG31  14561.607748 -11506.846204  18897.305388   -223.132056
PG32  19632.996066 -13067.914839 -11795.149131   -584.738939
PR01   8397.223988   9546.892957 -22117.940623    101.596043
PR02  12445.722491  -8470.525470 -20531.050443    -25.265689
PR03   9835.443692 -22361.665747  -7182.752533    109.742636
PR04   2295.398445 -23496.959773   9653.595088    260.041254
PR05  -6641.376504 -12222.329010  21378.299996    139.408428
PR07  -9751.436486  22612.888437   6798.554858     93.269854
PR08  -1971.137170  23496.650249  -9731.942334     -6.401551
PR09 -17111.750563  -3670.380753 -18574.206775    215.660566
PR11   8367.870305  18662.421573 -15221.402217      8.899669
PR12  18889.208468  16782.695097   3568.298269     46.229402
PR14   5120.544111 -10465.366432  22705.175479     27.107348
PR15  -9531.759021 -19209.584617  13837.805182     74.765399
PR16 -18882.738836 -16848.589218  -3338.927450     30.073244
PR17  16960.848403 -11390.923090 -15291.236081    132.254046
PR18    672.851735 -10879.057831 -23037.044977    167.689887
PR19 -14298.606567  -6346.959808 -20136.332401   -295.482981
PR20 -25118.335660   3902.528549  -2295.671689   -120.695342
PR21 -17681.983423  11031.379064  14688.307715   -144.179620
PR22    461.137734  11059.909150  23011.794595     15.965358
PR24  24908.102672  -5265.548648   1823.837474    -76.676187
PR25 -16940.741958  11034.847524  15545.979112    -90.088882
PR26  -2678.740001  23977.116393  -8243.104817   -535.819739
EOF
